E-SPACE_L_00003003-257
1 10976U 22904DW  26075.69993056  .00000000  00000+0  00000-0 0  9996
2 10976  27.0000  20.0000 0000000   0.0000 256.2222 15.03699691    17
E-SPACE_L_00003003-258
1 10977U 24095GH  26075.69993056  .00000000  00000+0  00000-0 0  9990
2 10977  27.0000  20.0000 0000000   0.0000 257.2222 15.03699691    19
E-SPACE_L_00003003-259
1 10978U 26488OT  26075.69993056  .00000000  00000+0  00000-0 0  9999
2 10978  27.0000  20.0000 0000000   0.0000 258.2222 15.03699691    11
E-SPACE_L_00003003-260
1 10979U 25267FQ  26075.69993056  .00000000  00000+0  00000-0 0  9994
2 10979  27.0000  20.0000 0000000   0.0000 259.2222 15.03699691    13
E-SPACE_L_00003003-261
1 10980U 26728BE  26075.69993056  .00000000  00000+0  00000-0 0  9999
2 10980  27.0000  20.0000 0000000   0.0000 260.2222 15.03699691    17
E-SPACE_L_00003003-262
1 10981U 26150GR  26075.69993056  .00000000  00000+0  00000-0 0  9999
2 10981  27.0000  20.0000 0000000   0.0000 261.2222 15.03699691    19
E-SPACE_L_00003003-263
1 10982U 25821KP  26075.69993056  .00000000  00000+0  00000-0 0  9994
2 10982  27.0000  20.0000 0000000   0.0000 262.2222 15.03699691    11
E-SPACE_L_00003003-264
1 10983U 24017FP  26075.69993056  .00000000  00000+0  00000-0 0  9991
2 10983  27.0000  20.0000 0000000   0.0000 263.2222 15.03699691    13
E-SPACE_L_00003003-265
1 10984U 22007US  26075.69993056  .00000000  00000+0  00000-0 0  9999
2 10984  27.0000  20.0000 0000000   0.0000 264.2222 15.03699691    15
E-SPACE_L_00003003-266
1 10985U 22508VY  26075.69993056  .00000000  00000+0  00000-0 0  9996
2 10985  27.0000  20.0000 0000000   0.0000 265.2222 15.03699691    17
E-SPACE_L_00003003-267
1 10986U 26159JN  26075.69993056  .00000000  00000+0  00000-0 0  9993
2 10986  27.0000  20.0000 0000000   0.0000 266.2222 15.03699691    19
E-SPACE_L_00003003-268
1 10987U 24509NO  26075.69993056  .00000000  00000+0  00000-0 0  9991
2 10987  27.0000  20.0000 0000000   0.0000 267.2222 15.03699691    11
E-SPACE_L_00003003-269
1 10988U 24684ZM  26075.69993056  .00000000  00000+0  00000-0 0  9996
2 10988  27.0000  20.0000 0000000   0.0000 268.2222 15.03699691    13
E-SPACE_L_00003003-270
1 10989U 22128LJ  26075.69993056  .00000000  00000+0  00000-0 0  9998
2 10989  27.0000  20.0000 0000000   0.0000 269.2222 15.03699691    15
E-SPACE_L_00003003-271
1 10990U 22101CI  26075.69993056  .00000000  00000+0  00000-0 0  9991
2 10990  27.0000  20.0000 0000000   0.0000 270.2222 15.03699691    19
E-SPACE_L_00003003-272
1 10991U 22701LW  26075.69993056  .00000000  00000+0  00000-0 0  9998
2 10991  27.0000  20.0000 0000000   0.0000 271.2222 15.03699691    11
E-SPACE_L_00003003-273
1 10992U 24697EA  26075.69993056  .00000000  00000+0  00000-0 0  9995
2 10992  27.0000  20.0000 0000000   0.0000 272.2222 15.03699691    13
E-SPACE_L_00003003-274
1 10993U 22192TU  26075.69993056  .00000000  00000+0  00000-0 0  9994
2 10993  27.0000  20.0000 0000000   0.0000 273.2222 15.03699691    15
E-SPACE_L_00003003-275
1 10994U 23082BG  26075.69993056  .00000000  00000+0  00000-0 0  9994
2 10994  27.0000  20.0000 0000000   0.0000 274.2222 15.03699691    17
E-SPACE_L_00003003-276
1 10995U 25990IF  26075.69993056  .00000000  00000+0  00000-0 0  9995
2 10995  27.0000  20.0000 0000000   0.0000 275.2222 15.03699691    19
E-SPACE_L_00003003-277
1 10996U 25176BC  26075.69993056  .00000000  00000+0  00000-0 0  9992
2 10996  27.0000  20.0000 0000000   0.0000 276.2222 15.03699691    11
E-SPACE_L_00003003-278
1 10997U 25493PU  26075.69993056  .00000000  00000+0  00000-0 0  9995
2 10997  27.0000  20.0000 0000000   0.0000 277.2222 15.03699691    13
E-SPACE_L_00003003-279
1 10998U 24431XS  26075.69993056  .00000000  00000+0  00000-0 0  9997
2 10998  27.0000  20.0000 0000000   0.0000 278.2222 15.03699691    15
E-SPACE_L_00003003-280
1 10999U 23338KQ  26075.69993056  .00000000  00000+0  00000-0 0  9993
2 10999  27.0000  20.0000 0000000   0.0000 279.2222 15.03699691    17
E-SPACE_L_00003003-281
1 11000U 23650XZ  26075.69993056  .00000000  00000+0  00000-0 0  9994
2 11000  27.0000  20.0000 0000000   0.0000 280.2222 15.03699691    13
E-SPACE_L_00003003-282
1 11001U 26100KV  26075.69993056  .00000000  00000+0  00000-0 0  9998
2 11001  27.0000  20.0000 0000000   0.0000 281.2222 15.03699691    15
E-SPACE_L_00003003-283
1 11002U 22832CO  26075.69993056  .00000000  00000+0  00000-0 0  9997
2 11002  27.0000  20.0000 0000000   0.0000 282.2222 15.03699691    17
E-SPACE_L_00003003-284
1 11003U 25233OP  26075.69993056  .00000000  00000+0  00000-0 0  9996
2 11003  27.0000  20.0000 0000000   0.0000 283.2222 15.03699691    19
E-SPACE_L_00003003-285
1 11004U 25116UL  26075.69993056  .00000000  00000+0  00000-0 0  9997
2 11004  27.0000  20.0000 0000000   0.0000 284.2222 15.03699691    11
E-SPACE_L_00003003-286
1 11005U 24552ZA  26075.69993056  .00000000  00000+0  00000-0 0  9991
2 11005  27.0000  20.0000 0000000   0.0000 285.2222 15.03699691    13
E-SPACE_L_00003003-287
1 11006U 24043HX  26075.69993056  .00000000  00000+0  00000-0 0  9997
2 11006  27.0000  20.0000 0000000   0.0000 286.2222 15.03699691    15
E-SPACE_L_00003003-288
1 11007U 23396HI  26075.69993056  .00000000  00000+0  00000-0 0  9998
2 11007  27.0000  20.0000 0000000   0.0000 287.2222 15.03699691    17
E-SPACE_L_00003003-289
1 11008U 25046XE  26075.69993056  .00000000  00000+0  00000-0 0  9993
2 11008  27.0000  20.0000 0000000   0.0000 288.2222 15.03699691    19
E-SPACE_L_00003003-290
1 11009U 23818SX  26075.69993056  .00000000  00000+0  00000-0 0  9999
2 11009  27.0000  20.0000 0000000   0.0000 289.2222 15.03699691    11
E-SPACE_L_00003003-291
1 11010U 26156JL  26075.69993056  .00000000  00000+0  00000-0 0  9999
2 11010  27.0000  20.0000 0000000   0.0000 290.2222 15.03699691    15
E-SPACE_L_00003003-292
1 11011U 22715RU  26075.69993056  .00000000  00000+0  00000-0 0  9997
2 11011  27.0000  20.0000 0000000   0.0000 291.2222 15.03699691    17
E-SPACE_L_00003003-293
1 11012U 24552JS  26075.69993056  .00000000  00000+0  00000-0 0  9999
2 11012  27.0000  20.0000 0000000   0.0000 292.2222 15.03699691    19
E-SPACE_L_00003003-294
1 11013U 24578SH  26075.69993056  .00000000  00000+0  00000-0 0  9998
2 11013  27.0000  20.0000 0000000   0.0000 293.2222 15.03699691    11
E-SPACE_L_00003003-295
1 11014U 22685ET  26075.69993056  .00000000  00000+0  00000-0 0  9996
2 11014  27.0000  20.0000 0000000   0.0000 294.2222 15.03699691    13
E-SPACE_L_00003003-296
1 11015U 25411LB  26075.69993056  .00000000  00000+0  00000-0 0  9997
2 11015  27.0000  20.0000 0000000   0.0000 295.2222 15.03699691    15
E-SPACE_L_00003003-297
1 11016U 23806WS  26075.69993056  .00000000  00000+0  00000-0 0  9994
2 11016  27.0000  20.0000 0000000   0.0000 296.2222 15.03699691    17
E-SPACE_L_00003003-298
1 11017U 22275TU  26075.69993056  .00000000  00000+0  00000-0 0  9994
2 11017  27.0000  20.0000 0000000   0.0000 297.2222 15.03699691    19
E-SPACE_L_00003003-299
1 11018U 26176JT  26075.69993056  .00000000  00000+0  00000-0 0  9999
2 11018  27.0000  20.0000 0000000   0.0000 298.2222 15.03699691    11
E-SPACE_L_00003003-300
1 11019U 25205DD  26075.69993056  .00000000  00000+0  00000-0 0  9992
2 11019  27.0000  20.0000 0000000   0.0000 299.2222 15.03699691    13
E-SPACE_L_00003003-301
1 11020U 25185XD  26075.69993056  .00000000  00000+0  00000-0 0  9991
2 11020  27.0000  20.0000 0000000   0.0000 300.2222 15.03699691    18
E-SPACE_L_00003003-302
1 11021U 22974UM  26075.69993056  .00000000  00000+0  00000-0 0  9995
2 11021  27.0000  20.0000 0000000   0.0000 301.2222 15.03699691    10
E-SPACE_L_00003003-303
1 11022U 25210MT  26075.69993056  .00000000  00000+0  00000-0 0  9992
2 11022  27.0000  20.0000 0000000   0.0000 302.2222 15.03699691    12
E-SPACE_L_00003003-304
1 11023U 23876NA  26075.69993056  .00000000  00000+0  00000-0 0  9999
2 11023  27.0000  20.0000 0000000   0.0000 303.2222 15.03699691    14
E-SPACE_L_00003003-305
1 11024U 23827JP  26075.69993056  .00000000  00000+0  00000-0 0  9996
2 11024  27.0000  20.0000 0000000   0.0000 304.2222 15.03699691    16
E-SPACE_L_00003003-306
1 11025U 25815UP  26075.69993056  .00000000  00000+0  00000-0 0  9996
2 11025  27.0000  20.0000 0000000   0.0000 305.2222 15.03699691    18
E-SPACE_L_00003003-307
1 11026U 25768EG  26075.69993056  .00000000  00000+0  00000-0 0  9994
2 11026  27.0000  20.0000 0000000   0.0000 306.2222 15.03699691    10
E-SPACE_L_00003003-308
1 11027U 23222ZD  26075.69993056  .00000000  00000+0  00000-0 0  9998
2 11027  27.0000  20.0000 0000000   0.0000 307.2222 15.03699691    12
E-SPACE_L_00003003-309
1 11028U 24362ZN  26075.69993056  .00000000  00000+0  00000-0 0  9995
2 11028  27.0000  20.0000 0000000   0.0000 308.2222 15.03699691    14
E-SPACE_L_00003003-310
1 11029U 23785FL  26075.69993056  .00000000  00000+0  00000-0 0  9994
2 11029  27.0000  20.0000 0000000   0.0000 309.2222 15.03699691    16
E-SPACE_L_00003003-311
1 11030U 22398XU  26075.69993056  .00000000  00000+0  00000-0 0  9995
2 11030  27.0000  20.0000 0000000   0.0000 310.2222 15.03699691    10
E-SPACE_L_00003003-312
1 11031U 25832HA  26075.69993056  .00000000  00000+0  00000-0 0  9992
2 11031  27.0000  20.0000 0000000   0.0000 311.2222 15.03699691    12
E-SPACE_L_00003003-313
1 11032U 23553HQ  26075.69993056  .00000000  00000+0  00000-0 0  9991
2 11032  27.0000  20.0000 0000000   0.0000 312.2222 15.03699691    14
E-SPACE_L_00003003-314
1 11033U 26531SF  26075.69993056  .00000000  00000+0  00000-0 0  9991
2 11033  27.0000  20.0000 0000000   0.0000 313.2222 15.03699691    16
E-SPACE_L_00003003-315
1 11034U 24448EP  26075.69993056  .00000000  00000+0  00000-0 0  9997
2 11034  27.0000  20.0000 0000000   0.0000 314.2222 15.03699691    18
E-SPACE_L_00003003-316
1 11035U 25925OV  26075.69993056  .00000000  00000+0  00000-0 0  9999
2 11035  27.0000  20.0000 0000000   0.0000 315.2222 15.03699691    10
E-SPACE_L_00003003-317
1 11036U 26288EW  26075.69993056  .00000000  00000+0  00000-0 0  9993
2 11036  27.0000  20.0000 0000000   0.0000 316.2222 15.03699691    12
